NORAD_CAT_ID,OBJECT_NAME,OBJECT_TYPE,EPOCH,MEAN_MOTION,ECCENTRICITY,INCLINATION,RA_OF_ASC_NODE,ARG_OF_PERICENTER,MEAN_ANOMALY,BSTAR,MEAN_MOTION_DOT,MEAN_MOTION_DDOT,TLE_LINE0,TLE_LINE1,TLE_LINE2,SEMIMAJOR_AXIS,PERIOD,APOGEE,PERIGEE,DECAYED
50194.0,STARLINK-3269,PAYLOAD,2024-06-10 04:52:01,15.08841996,0.0001271,53.2166,220.9237,84.5804,275.5333,1.9795e-05,2.7e-07,0.0,0 STARLINK-3269,1 50194U 21125AQ  24162.20279897  .00000027  00000-0  19795-4 0  9993,2 50194  53.2166 220.9237 0001271  84.5804 275.5333 15.08841996140025,6917.874,95.437,540.619,538.86,0.0
50194.0,STARLINK-3269,PAYLOAD,2024-06-10 11:13:34,15.08847195,0.0001316,53.2155,219.7348,81.0187,279.0954,0.00018205,2.611e-05,0.0,0 STARLINK-3269,1 50194U 21125AQ  24162.46775528  .00002611  00000-0  18205-3 0  9998,2 50194  53.2155 219.7348 0001316  81.0187 279.0954 15.08847195140584,6917.858,95.437,540.634,538.813,0.0
50194.0,STARLINK-3269,PAYLOAD,2024-06-10 20:45:53,15.08834367,0.0001377,53.2152,217.9489,77.2188,282.8958,0.00016048,2.267e-05,0.0,0 STARLINK-3269,1 50194U 21125AQ  24162.86520479  .00002267  00000-0  16048-3 0  9995,2 50194  53.2152 217.9489 0001377  77.2188 282.8958 15.08834367140125,6917.898,95.438,540.715,538.81,0.0
50194.0,STARLINK-3269,PAYLOAD,2024-06-11 11:04:22,15.08825603,0.0001447,53.2162,215.2757,73.6275,286.4876,8.5531e-05,1.073e-05,0.0,0 STARLINK-3269,1 50194U 21125AQ  24163.46137551  .00001073  00000-0  85531-4 0  9995,2 50194  53.2162 215.2757 0001447  73.6275 286.4876 15.08825603140739,6917.924,95.438,540.79,538.788,0.0
50194.0,STARLINK-3269,PAYLOAD,2024-06-11 20:36:41,15.08835079,0.000162,53.2176,213.4908,74.1351,285.982,0.00019685,2.846e-05,0.0,0 STARLINK-3269,1 50194U 21125AQ  24163.85881368  .00002846  00000-0  19685-3 0  9995,2 50194  53.2176 213.4908 0001620  74.1351 285.9820 15.08835079140276,6917.895,95.438,540.881,538.64,0.0
50194.0,STARLINK-3269,PAYLOAD,2024-06-12 10:55:09,15.08850054,0.0001373,53.215,210.815,68.4758,291.638,0.00033773,5.093e-05,0.0,0 STARLINK-3269,1 50194U 21125AQ  24164.45496654  .00005093  00000-0  33773-3 0  9993,2 50194  53.2150 210.8150 0001373  68.4758 291.6380 15.08850054140365,6917.85,95.437,540.664,538.765,0.0
50194.0,STARLINK-3269,PAYLOAD,2024-06-13 02:49:00,15.08845262,0.0001354,53.2148,207.8411,67.6781,292.4354,0.00027311,4.062e-05,0.0,0 STARLINK-3269,1 50194U 21125AQ  24165.11736790  .00004062  00000-0  27311-3 0  9991,2 50194  53.2148 207.8411 0001354  67.6781 292.4354 15.08845262140460,6917.864,95.437,540.666,538.793,0.0
50194.0,STARLINK-3269,PAYLOAD,2024-06-13 09:10:33,15.08848346,0.0001323,53.2147,206.6509,69.2019,290.9114,0.00028488,4.25e-05,0.0,0 STARLINK-3269,1 50194U 21125AQ  24165.38232650  .00004250  00000-0  28488-3 0  9991,2 50194  53.2147 206.6509 0001323  69.2019 290.9114 15.08848346141028,6917.855,95.437,540.635,538.805,0.0
50194.0,STARLINK-3269,PAYLOAD,2024-06-14 12:12:05,15.08847229,0.0001387,53.2158,201.5946,80.9181,279.1968,7.8048e-05,9.55e-06,0.0,0 STARLINK-3269,1 50194U 21125AQ  24166.50840196  .00000955  00000-0  78048-4 0  9992,2 50194  53.2158 201.5946 0001387  80.9181 279.1968 15.08847229141192,6917.858,95.437,540.683,538.764,0.0
50194.0,STARLINK-3269,PAYLOAD,2024-06-15 12:02:52,15.08846567,0.0001361,53.2164,197.1341,81.7195,278.3952,7.6031e-05,9.23e-06,0.0,0 STARLINK-3269,1 50194U 21125AQ  24167.50199855  .00000923  00000-0  76031-4 0  9997,2 50194  53.2164 197.1341 0001361  81.7195 278.3952 15.08846567140821,6917.86,95.437,540.667,538.784,0.0
50194.0,STARLINK-3269,PAYLOAD,2024-06-16 11:53:39,15.08844645,0.0001313,53.2158,192.6737,78.9695,281.1445,6.2857e-05,7.13e-06,0.0,0 STARLINK-3269,1 50194U 21125AQ  24168.49559798  .00000713  00000-0  62857-4 0  9990,2 50194  53.2158 192.6737 0001313  78.9695 281.1445 15.08844645141491,6917.866,95.437,540.64,538.823,0.0
50194.0,STARLINK-3269,PAYLOAD,2024-06-17 18:05:59,15.08837831,0.0001285,53.2155,187.0236,76.5935,283.52,2.2339e-05,6.8e-07,0.0,0 STARLINK-3269,1 50194U 21125AQ  24169.75416347  .00000068  00000-0  22339-4 0  9996,2 50194  53.2155 187.0236 0001285  76.5935 283.5200 15.08837831141684,6917.887,95.438,540.641,538.863,0.0
50194.0,STARLINK-3269,PAYLOAD,2024-06-18 09:59:51,15.08840028,0.0001293,53.2156,184.0502,78.6166,281.4971,3.3613e-05,2.47e-06,0.0,0 STARLINK-3269,1 50194U 21125AQ  24170.41656255  .00000247  00000-0  33613-4 0  9991,2 50194  53.2156 184.0502 0001293  78.6166 281.4971 15.08840028141264,6917.88,95.438,540.64,538.851,0.0
50194.0,STARLINK-3269,PAYLOAD,2024-06-18 17:56:46,15.08839474,0.0001271,53.2154,182.5633,81.6958,278.4178,4.3987e-05,4.12e-06,0.0,0 STARLINK-3269,1 50194U 21125AQ  24170.74776231  .00000412  00000-0  43987-4 0  9993,2 50194  53.2154 182.5633 0001271  81.6958 278.4178 15.08839474141830,6917.882,95.438,540.626,538.868,0.0
50194.0,STARLINK-3269,PAYLOAD,2024-06-19 09:50:38,15.08839037,0.0001276,53.216,179.5898,84.9783,275.1355,7.1479e-05,8.5e-06,0.0,0 STARLINK-3269,1 50194U 21125AQ  24171.41016274  .00000850  00000-0  71479-4 0  9995,2 50194  53.2160 179.5898 0001276  84.9783 275.1355 15.08839037141930,6917.883,95.438,540.631,538.866,0.0
50194.0,STARLINK-3269,PAYLOAD,2024-06-19 17:47:33,15.08836437,0.0001274,53.2159,178.1031,85.2524,274.8614,4.1075e-05,3.66e-06,0.0,0 STARLINK-3269,1 50194U 21125AQ  24171.74136561  .00000366  00000-0  41075-4 0  9994,2 50194  53.2159 178.1031 0001274  85.2524 274.8614 15.08836437141460,6917.891,95.438,540.638,538.875,0.0
50194.0,STARLINK-3269,PAYLOAD,2024-06-20 06:30:39,15.08836018,0.0001273,53.2158,175.7238,88.2491,271.8647,1.6826e-06,-2.61e-06,0.0,0 STARLINK-3269,1 50194U 21125AQ  24172.27128813 -.00000261  00000-0  16826-5 0  9996,2 50194  53.2158 175.7238 0001273  88.2491 271.8647 15.08836018142061,6917.893,95.438,540.638,538.877,0.0
50194.0,STARLINK-3269,PAYLOAD,2024-06-20 23:59:53,15.08839846,0.0001306,53.216,172.4524,89.0612,271.053,4.5454e-05,4.36e-06,0.0,0 STARLINK-3269,1 50194U 21125AQ  24172.99992498  .00000436  00000-0  45454-4 0  9994,2 50194  53.2160 172.4524 0001306  89.0612 271.0530 15.08839846141656,6917.881,95.438,540.649,538.842,0.0
50194.0,STARLINK-3269,PAYLOAD,2024-06-21 06:21:25,15.08842253,0.0001307,53.2161,171.2631,88.865,271.2492,5.0234e-05,5.12e-06,0.0,0 STARLINK-3269,1 50194U 21125AQ  24173.26488332  .00000512  00000-0  50234-4 0  9999,2 50194  53.2161 171.2631 0001307  88.8650 271.2492 15.08842253142211,6917.874,95.437,540.643,538.834,0.0
50194.0,STARLINK-3269,PAYLOAD,2024-06-22 04:36:50,15.08833847,0.0001289,53.216,167.1002,87.7874,272.3265,3.4618e-05,2.63e-06,0.0,0 STARLINK-3269,1 50194U 21125AQ  24174.19225075  .00000263  00000-0  34618-4 0  9996,2 50194  53.2160 167.1002 0001289  87.7874 272.3265 15.08833847141837,6917.899,95.438,540.656,538.872,0.0
50194.0,STARLINK-3269,PAYLOAD,2024-06-22 06:12:13,15.08834626,0.0001287,53.2161,166.8029,87.2076,272.9064,2.7362e-05,1.48e-06,0.0,0 STARLINK-3269,1 50194U 21125AQ  24174.25849073  .00000148  00000-0  27362-4 0  9993,2 50194  53.2161 166.8029 0001287  87.2076 272.9064 15.08834626142368,6917.897,95.438,540.652,538.871,0.0
50194.0,STARLINK-3269,PAYLOAD,2024-06-23 09:13:46,15.08842319,0.0001351,53.2163,161.7485,96.8745,263.2401,5.7587e-05,6.29e-06,0.0,0 STARLINK-3269,1 50194U 21125AQ  24175.38456545  .00000629  00000-0  57587-4 0  9992,2 50194  53.2163 161.7485 0001351  96.8745 263.2401 15.08842319142019,6917.873,95.437,540.673,538.804,0.0
50194.0,STARLINK-3269,PAYLOAD,2024-06-24 05:53:47,15.08840809,0.0001369,53.2166,157.8813,95.4004,264.7144,7.9037e-05,9.7e-06,0.0,0 STARLINK-3269,1 50194U 21125AQ  24176.24568581  .00000970  00000-0  79037-4 0  9995,2 50194  53.2166 157.8813 0001369  95.4004 264.7144 15.08840809142668,6917.878,95.438,540.69,538.796,0.0
50194.0,STARLINK-3269,PAYLOAD,2024-06-25 04:09:11,15.08834514,0.0001499,53.217,153.7184,102.6615,257.4545,-1.4878e-05,-5.25e-06,0.0,0 STARLINK-3269,1 50194U 21125AQ  24177.17305413 -.00000525  00000-0 -14878-4 0  9991,2 50194  53.2170 153.7184 0001499 102.6615 257.4545 15.08834514142280,6917.897,95.438,540.799,538.725,0.0
50194.0,STARLINK-3269,PAYLOAD,2024-06-26 05:35:22,15.08836367,0.000131,53.2165,148.9555,97.0067,263.1074,-1.5624e-05,-5.37e-06,0.0,0 STARLINK-3269,1 50194U 21125AQ  24178.23289410 -.00000537  00000-0 -15624-4 0  9990,2 50194  53.2165 148.9555 0001310  97.0067 263.1074 15.08836367142449,6917.891,95.438,540.663,538.85,0.0
50194.0,STARLINK-3269,PAYLOAD,2024-06-27 05:26:08,15.08843448,0.0001536,53.2164,144.4949,111.6546,248.461,3.0431e-05,1.96e-06,0.0,0 STARLINK-3269,1 50194U 21125AQ  24179.22649119  .00000196  00000-0  30431-4 0  9998,2 50194  53.2164 144.4949 0001536 111.6546 248.4610 15.08843448142597,6917.87,95.437,540.797,538.672,0.0
50194.0,STARLINK-3269,PAYLOAD,2024-06-27 14:58:27,15.08839092,0.0001313,53.216,142.716,102.5504,257.5635,5.3231e-05,5.59e-06,0.0,0 STARLINK-3269,1 50194U 21125AQ  24179.62393488  .00000559  00000-0  53231-4 0  9993,2 50194  53.2160 142.7160 0001313 102.5504 257.5635 15.08839092143178,6917.883,95.438,540.656,538.84,0.0
50194.0,STARLINK-3269,PAYLOAD,2024-06-28 03:41:33,15.08839367,0.000132,53.2154,140.3356,111.9358,248.1775,5.3973e-05,5.71e-06,0.0,0 STARLINK-3269,1 50194U 21125AQ  24180.15385462  .00000571  00000-0  53973-4 0  9993,2 50194  53.2154 140.3356 0001320 111.9358 248.1775 15.08839367142738,6917.882,95.438,540.66,538.834,0.0
50194.0,STARLINK-3269,PAYLOAD,2024-06-28 14:49:14,15.08847765,0.0001271,53.2168,138.2555,128.8667,231.2438,0.00014012,1.943e-05,0.0,0 STARLINK-3269,1 50194U 21125AQ  24180.61752577  .00001943  00000-0  14012-3 0  9993,2 50194  53.2168 138.2555 0001271 128.8667 231.2438 15.08847765142803,6917.857,95.437,540.601,538.842,0.0
50194.0,STARLINK-3269,PAYLOAD,2024-06-29 03:32:18,15.08862288,0.0001463,53.2179,135.8755,99.5069,260.6089,0.00018232,2.617e-05,0.0,0 STARLINK-3269,1 50194U 21125AQ  24181.14743620  .00002617  00000-0  18232-3 0  9998,2 50194  53.2179 135.8755 0001463  99.5069 260.6089 15.08862288142886,6917.812,95.436,540.689,538.665,0.0
